LEMUR-2-TRUTNAHD        
1 42069U 98067LE  17346.09100854  .00022229  00000-0  21367-3 0  9998
2 42069  51.6372 219.5183 0005218 219.1325 140.9294 15.66486268 43799
